OBJECT_NAME,OBJECT_ID,EPOCH,MEAN_MOTION,ECCENTRICITY,INCLINATION,RA_OF_ASC_NODE,ARG_OF_PERICENTER,MEAN_ANOMALY,EPHEMERIS_TYPE,CLASSIFICATION_TYPE,NORAD_CAT_ID,ELEMENT_SET_NO,REV_AT_EPOCH,BSTAR,MEAN_MOTION_DOT,MEAN_MOTION_DDOT
SXM-8,2021-049A,2026-06-06T21:37:26.921856,1.00271441,.00049531,0.0200,18.0730,16.4977,99.9648,0,U,48838,999,1848,0,-.192E-5,0
TIANLIAN 1-05,2021-063A,2026-06-06T01:34:28.316064,1.00272868,.00010734,1.5645,80.7984,315.3769,258.7612,0,U,49011,999,1796,0,.121E-5,0
STAR ONE D2,2021-069A,2026-06-07T06:26:30.209280,1.00270354,.00017157,0.0132,340.6755,115.7377,185.7919,0,U,49055,999,1784,0,0,0
EUTELSAT QUANTUM,2021-069B,2026-06-07T05:05:56.257152,1.00271928,.00024121,0.0102,340.9060,91.7636,307.1349,0,U,49056,999,1782,0,.14E-5,0
ZHONGXING-2E,2021-071A,2026-06-07T02:52:21.429408,1.00274571,.00018101,0.0471,244.2001,235.0222,277.4409,0,U,49062,999,1793,0,-.278E-5,0
TJS-7,2021-077A,2026-06-07T06:06:34.403904,1.00271326,.00025068,0.4826,86.1915,334.3035,187.3572,0,U,49115,999,945,0,-.11E-5,0
CHINASAT 9B,2021-080A,2026-06-07T02:42:21.661344,1.00274045,.00016078,0.0245,77.9119,21.6286,297.9844,0,U,49125,999,1754,0,-.299E-5,0
SHIJIAN-21 (SJ-21),2021-094A,2026-06-07T06:31:58.484352,1.00276363,.00494935,5.0887,61.2381,167.9941,252.4223,0,U,49330,999,526,0,-.333E-5,0
SES-17,2021-095A,2026-06-07T05:14:38.610816,1.00271178,.00010821,0.0249,34.1541,74.2211,158.8137,0,U,49332,999,1775,0,-.258E-5,0
SYRACUSE 4A,2021-095B,2026-06-07T05:05:18.815712,1.00270903,.00013484,0.0172,337.6937,95.7559,304.0008,0,U,49333,999,1784,0,.149E-5,0
QZS-1R (MICHIBIKI-1R),2021-096A,2026-06-06T15:47:00.831264,1.00259679,.0754231,37.4401,79.7406,271.5748,275.1259,0,U,49336,999,1690,0,-.234E-5,0
ZHONGXING-1D,2021-114A,2026-06-07T05:29:23.942976,1.00274786,.00001153,0.0415,245.9511,321.1285,261.0847,0,U,49505,999,1672,0,-.322E-5,0
STPSAT-6,2021-118A,2026-06-07T06:03:04.738752,1.00273570,.00014242,0.2941,85.5142,258.8315,250.3924,0,U,49817,999,1647,0,-.32E-6,0
EXPRESS AMU-7,2021-123A,2026-06-05T21:03:01.288800,1.00272297,.00001769,0.0152,294.3911,101.4015,319.2735,0,U,50001,999,1642,0,-.23E-5,0
EXPRESS AMU-3,2021-123B,2026-06-06T00:10:43.305024,1.00270112,.00004255,0.0231,311.6887,355.6601,52.6473,0,U,50002,999,692,0,0,0
TIANLIAN 2-02,2021-124A,2026-06-07T05:41:07.816992,1.00272722,.00011656,0.7752,86.2817,222.6520,202.9713,0,U,50005,999,1652,0,.1E-7,0
TURKSAT 5B,2021-126A,2026-06-07T03:21:38.630016,1.00272179,.00036668,0.0681,340.2795,18.0522,349.6366,0,U,50212,999,1619,0,.16E-5,0
INMARSAT 6-F1,2021-128A,2026-06-07T03:33:29.687328,1.00269935,.00001019,0.0132,289.4569,158.4225,304.8098,0,U,50319,999,1615,0,-.158E-5,0
SHIYAN-12 01 (SY-12 01),2021-129A,2026-06-06T17:23:16.697184,1.00038142,.0003482,3.6467,80.0511,289.2234,215.5580,0,U,50321,999,1639,0,.32E-6,0
SHIYAN-12 02 (SY-12 02),2021-129B,2026-06-06T17:26:01.008384,1.00492150,.0002701,3.6464,80.0578,52.3961,104.8461,0,U,50322,999,1639,0,-.177E-5,0
TJS-9,2021-135A,2026-06-07T05:31:31.238688,1.00272589,.00048515,0.0607,256.0630,151.8788,67.7888,0,U,50574,999,1633,0,-.284E-5,0
USA 324,2022-006A,2026-06-06T02:06:38.886912,1.00289779,.000284,0.7690,83.2777,165.6787,110.1567,0,U,51280,999,1602,0,-.58E-6,0
GOES 18,2022-021A,2026-06-07T06:27:48.524832,1.00272217,.00005906,0.0298,153.8147,342.1501,79.6655,0,U,51850,999,649,0,.111E-5,0
ZHONGXING-6D,2022-038A,2026-06-06T22:38:18.317184,1.00270013,.00002448,0.0387,95.0514,261.6044,3.3511,0,U,52255,999,1532,0,-.34E-5,0
NILESAT 301,2022-061A,2026-06-07T04:50:20.252256,1.00272032,.00055286,0.0553,25.7313,17.8379,277.6226,0,U,52817,999,1463,0,-.44E-6,0
MEASAT 3D,2022-067B,2026-06-07T03:35:44.471328,1.00270444,.00012363,0.0279,0.8063,36.4605,3.7307,0,U,52904,999,1454,0,-.227E-5,0
SES-22,2022-071A,2026-06-07T07:49:30.465120,1.00273629,.00012269,0.0281,284.7636,143.7142,165.6394,0,U,52933,999,742,0,.119E-5,0
WFOV (USA 332),2022-073A,2026-06-07T00:18:23.414400,1.00272785,.00021433,3.6839,78.6575,246.4260,54.1981,0,U,52940,999,1426,0,-.348E-5,0
TIANLIAN 2-03,2022-078A,2026-06-07T04:55:19.773408,1.00272196,.00016154,0.6469,76.8293,317.3028,305.9015,0,U,53100,999,1444,0,.86E-6,0
SBIRS GEO-6 (USA 336),2022-092A,2026-06-07T05:24:51.625728,1.00271497,.00020791,3.2754,317.3141,116.0902,42.4593,0,U,53355,999,1413,0,-.28E-5,0
