SXM-8                   
1 48838U 21049A   26157.90100603 -.00000192  00000+0  00000+0 0  9998
2 48838   0.0200  18.0730 0004953  16.4977  99.9648  1.00271441 18485
TIANLIAN 1-05           
1 49011U 21063A   26157.06560551  .00000121  00000+0  00000+0 0  9998
2 49011   1.5645  80.7984 0001073 315.3769 258.7612  1.00272868 17967
STAR ONE D2             
1 49055U 21069A   26158.26840520  .00000000  00000+0  00000+0 0  9998
2 49055   0.0132 340.6755 0001715 115.7377 185.7919  1.00270354 17848
EUTELSAT QUANTUM        
1 49056U 21069B   26158.21245668  .00000140  00000+0  00000+0 0  9991
2 49056   0.0102 340.9060 0002412  91.7636 307.1349  1.00271928 17827
ZHONGXING-2E            
1 49062U 21071A   26158.11969247 -.00000278  00000+0  00000+0 0  9999
2 49062   0.0471 244.2001 0001810 235.0222 277.4409  1.00274571 17934
TJS-7                   
1 49115U 21077A   26158.25456486 -.00000110  00000+0  00000+0 0  9990
2 49115   0.4826  86.1915 0002506 334.3035 187.3572  1.00271326  9459
CHINASAT 9B             
1 49125U 21080A   26158.11275071 -.00000299  00000+0  00000+0 0  9997
2 49125   0.0245  77.9119 0001608  21.6286 297.9844  1.00274045 17541
SHIJIAN-21 (SJ-21)      
1 49330U 21094A   26158.27220468 -.00000333  00000+0  00000+0 0  9996
2 49330   5.0887  61.2381 0049493 167.9941 252.4223  1.00276363  5267
SES-17                  
1 49332U 21095A   26158.21850244 -.00000258  00000+0  00000+0 0  9990
2 49332   0.0249  34.1541 0001082  74.2211 158.8137  1.00271178 17754
SYRACUSE 4A             
1 49333U 21095B   26158.21202333  .00000149  00000+0  00000+0 0  9999
2 49333   0.0172 337.6937 0001348  95.7559 304.0008  1.00270903 17845
QZS-1R (MICHIBIKI-1R)   
1 49336U 21096A   26157.65764851 -.00000234  00000+0  00000+0 0  9994
2 49336  37.4401  79.7406 0754231 271.5748 275.1259  1.00259679 16901
ZHONGXING-1D            
1 49505U 21114A   26158.22874934 -.00000322  00000+0  00000+0 0  9999
2 49505   0.0415 245.9511 0000115 321.1285 261.0847  1.00274786 16720
STPSAT-6                
1 49817U 21118A   26158.25213818 -.00000032  00000+0  00000+0 0  9998
2 49817   0.2941  85.5142 0001424 258.8315 250.3924  1.00273570 16473
EXPRESS AMU-7           
1 50001U 21123A   26156.87709825 -.00000230  00000+0  00000+0 0  9995
2 50001   0.0152 294.3911 0000176 101.4015 319.2735  1.00272297 16424
EXPRESS AMU-3           
1 50002U 21123B   26157.00744566  .00000000  00000+0  00000+0 0  9997
2 50002   0.0231 311.6887 0000425 355.6601  52.6473  1.00270112  6924
TIANLIAN 2-02           
1 50005U 21124A   26158.23689603  .00000001  00000+0  00000+0 0  9998
2 50005   0.7752  86.2817 0001165 222.6520 202.9713  1.00272722 16528
TURKSAT 5B              
1 50212U 21126A   26158.14003044  .00000160  00000+0  00000+0 0  9995
2 50212   0.0681 340.2795 0003667  18.0522 349.6366  1.00272179 16190
INMARSAT 6-F1           
1 50319U 21128A   26158.14826027 -.00000158  00000+0  00000+0 0  9997
2 50319   0.0132 289.4569 0000102 158.4225 304.8098  1.00269935 16159
SHIYAN-12 01 (SY-12 01) 
1 50321U 21129A   26157.72449881  .00000032  00000+0  00000+0 0  9993
2 50321   3.6467  80.0511 0003482 289.2234 215.5580  1.00038142 16395
SHIYAN-12 02 (SY-12 02) 
1 50322U 21129B   26157.72640056 -.00000177  00000+0  00000+0 0  9992
2 50322   3.6464  80.0578 0002701  52.3961 104.8461  1.00492150 16396
TJS-9                   
1 50574U 21135A   26158.23022267 -.00000284  00000+0  00000+0 0  9992
2 50574   0.0607 256.0630 0004851 151.8788  67.7888  1.00272589 16335
USA 324                 
1 51280U 22006A   26157.08795008 -.00000058  00000+0  00000+0 0  9996
2 51280   0.7690  83.2777 0002840 165.6787 110.1567  1.00289779 16021
GOES 18                 
1 51850U 22021A   26158.26931163  .00000111  00000+0  00000+0 0  9990
2 51850   0.0298 153.8147 0000590 342.1501  79.6655  1.00272217  6498
ZHONGXING-6D            
1 52255U 22038A   26157.94326756 -.00000340  00000+0  00000+0 0  9993
2 52255   0.0387  95.0514 0000244 261.6044   3.3511  1.00270013 15324
NILESAT 301             
1 52817U 22061A   26158.20162329 -.00000044  00000+0  00000+0 0  9998
2 52817   0.0553  25.7313 0005528  17.8379 277.6226  1.00272032 14637
MEASAT 3D               
1 52904U 22067B   26158.14982027 -.00000227  00000+0  00000+0 0  9992
2 52904   0.0279   0.8063 0001236  36.4605   3.7307  1.00270444 14549
SES-22                  
1 52933U 22071A   26158.32604705  .00000119  00000+0  00000+0 0  9992
2 52933   0.0281 284.7636 0001226 143.7142 165.6394  1.00273629  7421
WFOV (USA 332)          
1 52940U 22073A   26158.01277100 -.00000348  00000+0  00000+0 0  9998
2 52940   3.6839  78.6575 0002143 246.4260  54.1981  1.00272785 14266
TIANLIAN 2-03           
1 53100U 22078A   26158.20508997  .00000086  00000+0  00000+0 0  9992
2 53100   0.6469  76.8293 0001615 317.3028 305.9015  1.00272196 14442
SBIRS GEO-6 (USA 336)   
1 53355U 22092A   26158.22559752 -.00000280  00000+0  00000+0 0  9994
2 53355   3.2754 317.3141 0002079 116.0902  42.4593  1.00271497 14138
